FLOCK 4G-36             
1 62675U 25009BU  26068.70726311  .00013573  00000+0  51122-3 0  9993
2 62675  97.4053 151.0513 0003474 324.2456  35.8550 15.27209548 63701
STARLINK-32915          
1 63152U 25043W   26067.90914219  .00036119  00000+0  13153-2 0  9991
2 63152  42.9991  27.4604 0001231 246.1784 113.8939 15.27588605 57165
