[{"OBJECT_NAME":"FLOCK 4G-36","OBJECT_ID":"2025-009BU","EPOCH":"2026-03-09T16:58:27.533568","MEAN_MOTION":15.27209548,"ECCENTRICITY":0.00034736,"INCLINATION":97.4053,"RA_OF_ASC_NODE":151.0513,"ARG_OF_PERICENTER":324.2456,"MEAN_ANOMALY":35.855,"EPHEMERIS_TYPE":0,"CLASSIFICATION_TYPE":"U","NORAD_CAT_ID":62675,"ELEMENT_SET_NO":999,"REV_AT_EPOCH":6370,"BSTAR":0.00051121743,"MEAN_MOTION_DOT":0.00013573,"MEAN_MOTION_DDOT":0},{"OBJECT_NAME":"STARLINK-32915","OBJECT_ID":"2025-043W","EPOCH":"2026-03-08T21:49:09.885216","MEAN_MOTION":15.27588605,"ECCENTRICITY":0.0001231,"INCLINATION":42.9991,"RA_OF_ASC_NODE":27.4604,"ARG_OF_PERICENTER":246.1784,"MEAN_ANOMALY":113.8939,"EPHEMERIS_TYPE":0,"CLASSIFICATION_TYPE":"U","NORAD_CAT_ID":63152,"ELEMENT_SET_NO":999,"REV_AT_EPOCH":5716,"BSTAR":0.0013152863,"MEAN_MOTION_DOT":0.00036119,"MEAN_MOTION_DDOT":0}]
